H1 CPF 01  gfz 2021 08 31 00  7431 tandemx   
H2 1003001  6202 36605    2021 08 31 00 59 42 2021 09 05 00 00 42   120 1 1  0 0 0
H9
10 0 59459  79182.000000  0    3457024.023  -5953162.779    271985.380
10 0 59459  79302.000000  0    3254153.605  -5957009.421   1171464.147
10 0 59459  79422.000000  0    2995276.647  -5852683.210   2050316.160
10 0 59459  79542.000000  0    2686796.270  -5641067.205   2893064.291
10 0 59459  79662.000000  0    2335959.059  -5325056.770   3684871.151
10 0 59459  79782.000000  0    1950689.833  -4909518.587   4411805.304
10 0 59459  79902.000000  0    1539415.273  -4401210.266   5061089.770
10 0 59459  80022.000000  0    1110881.665  -3808663.008   5621327.038
10 0 59459  80142.000000  0     673968.879  -3142029.435   6082697.784
10 0 59459  80262.000000  0     237506.362  -2412901.183   6437126.691
10 0 59459  80382.000000  0    -189904.077  -1634102.064   6678416.736
10 0 59459  80502.000000  0    -600056.122   -819460.215   6802351.779
10 0 59459  80622.000000  0    -985295.291     16439.024   6806766.903
10 0 59459  80742.000000  0   -1338661.023    858514.755   6691583.771
10 0 59459  80862.000000  0   -1654012.013   1691462.063   6458811.572
10 0 59459  80982.000000  0   -1926133.188   2500029.320   6112514.307
10 0 59459  81102.000000  0   -2150822.702   3269297.749   5658744.118
10 0 59459  81222.000000  0   -2324957.220   3984958.296   5105441.339
10 0 59459  81342.000000  0   -2446535.593   4633582.302   4462302.635
10 0 59459  81462.000000  0   -2514699.046   5202880.469   3740616.129
10 0 59459  81582.000000  0   -2529727.361   5681944.130   2953065.869
10 0 59459  81702.000000  0   -2493010.566   6061462.398   2113508.556
10 0 59459  81822.000000  0   -2406997.259   6333911.009   1236727.284
10 0 59459  81942.000000  0   -2275119.964   6493707.863    338165.953
10 0 59459  82062.000000  0   -2101699.682   6537331.070   -566350.099
10 0 59459  82182.000000  0   -1891832.295   6463396.795  -1460902.041
10 0 59459  82302.000000  0   -1651258.366   6272692.356  -2329769.726
10 0 59459  82422.000000  0   -1386219.926   5968161.197  -3157715.172
10 0 59459  82542.000000  0   -1103310.236   5554847.937  -3930251.539
10 0 59459  82662.000000  0    -809319.935   5039803.802  -4633896.784
10 0 59459  82782.000000  0    -511082.767   4431954.076  -5256404.836
10 0 59459  82902.000000  0    -215324.237   3741933.268  -5786972.070
10 0 59459  83022.000000  0      71483.665   2981889.637  -6216416.297
10 0 59459  83142.000000  0     343257.892   2165264.084  -6537324.179
10 0 59459  83262.000000  0     594427.303   1306550.588  -6744167.358
10 0 59459  83382.000000  0     820042.157    421040.453  -6833388.674
10 0 59459  83502.000000  0    1015867.856   -475445.907  -6803456.464
10 0 59459  83622.000000  0    1178461.631  -1366836.044  -6654887.013
10 0 59459  83742.000000  0    1305231.313  -2237085.562  -6390235.203
10 0 59459  83862.000000  0    1394476.350  -3070458.998  -6014056.459
10 0 59459  83982.000000  0    1445410.005  -3851810.815  -5532838.527
10 0 59459  84102.000000  0    1458161.302  -4566861.183  -4954899.443
10 0 59459  84222.000000  0    1433758.431  -5202458.423  -4290254.233
10 0 59459  84342.000000  0    1374092.445  -5746827.404  -3550453.078
10 0 59459  84462.000000  0    1281861.074  -6189797.534  -2748388.819
10 0 59459  84582.000000  0    1160495.145  -6523004.044  -1898077.735
10 0 59459  84702.000000  0    1014068.473  -6740058.407  -1014416.209
10 0 59459  84822.000000  0     847192.000  -6836682.083   -112917.230
10 0 59459  84942.000000  0     664895.783  -6810799.194    790567.376
10 0 59459  85062.000000  0     472501.658  -6662586.416   1680133.009
10 0 59459  85182.000000  0     275489.627  -6394477.957   2540111.784
10 0 59459  85302.000000  0      79361.373  -6011123.422   3355358.672
10 0 59459  85422.000000  0    -110496.095  -5519299.437   4111524.972
10 0 59459  85542.000000  0    -288942.603  -4927781.623   4795313.879
10 0 59459  85662.000000  0    -451209.218  -4247178.291   5394715.900
10 0 59459  85782.000000  0    -593011.862  -3489730.532   5899218.468
10 0 59459  85902.000000  0    -710652.227  -2669081.882   6299987.104
10 0 59459  86022.000000  0    -801103.587  -1800024.913   6590012.480
10 0 59459  86142.000000  0    -862080.112   -898231.926   6764226.282
10 0 59459  86262.000000  0    -892089.013     20029.261   6819585.860
10 0 59459  86382.000000  0    -890464.307    938189.435   6755124.324
10 0 59460    102.000000  0    -857380.493   1839676.653   6571966.353
10 0 59460    222.000000  0    -793846.713   2708214.805   6273309.667
10 0 59460    342.000000  0    -701681.982   3528117.620   5864372.873
10 0 59460    462.000000  0    -583471.794   4284574.362   5352309.345
10 0 59460    582.000000  0    -442506.339   4963921.185   4746088.047
10 0 59460    702.000000  0    -282701.935   5553896.077   4056342.524
10 0 59460    822.000000  0    -108506.139   6043867.543   3295186.794
10 0 59460    942.000000  0      75209.291   6425036.334   2476008.100
10 0 59460   1062.000000  0     263267.662   6690607.924   1613227.711
10 0 59460   1182.000000  0     450316.288   6835919.680    722040.723
10 0 59460   1302.000000  0     630960.358   6858527.957   -181857.998
10 0 59460   1422.000000  0     799898.986   6758250.892  -1082559.048
10 0 59460   1542.000000  0     952058.467   6537164.599  -1964227.312
10 0 59460   1662.000000  0    1082719.905   6199555.052  -2811387.463
10 0 59460   1782.000000  0    1187638.957   5751826.507  -3609200.838
10 0 59460   1902.000000  0    1263154.749   5202369.008  -4343727.735
10 0 59460   2022.000000  0    1306285.134   4561388.702  -5002169.705
10 0 59460   2142.000000  0    1314806.124   3840706.125  -5573086.723
10 0 59460   2262.000000  0    1287313.680   3053529.121  -6046587.426
10 0 59460   2382.000000  0    1223267.139   2214203.521  -6414490.199
10 0 59460   2502.000000  0    1123013.423   1337948.889  -6670451.955
10 0 59460   2622.000000  0     987792.401    440584.439  -6810067.591
10 0 59460   2742.000000  0     819723.043   -461752.845  -6830937.866
10 0 59460   2862.000000  0     621770.443  -1352892.739  -6732705.105
10 0 59460   2982.000000  0     397694.583  -2216913.466  -6517057.109
10 0 59460   3102.000000  0     151981.921  -3038418.035  -6187702.754
10 0 59460   3222.000000  0    -110241.042  -3802805.539  -5750316.417
10 0 59460   3342.000000  0    -383309.247  -4496529.175  -5212449.039
10 0 59460   3462.000000  0    -661134.639  -5107338.567  -4583409.543
10 0 59460   3582.000000  0    -937334.870  -5624502.703  -3874115.144
10 0 59460   3702.000000  0   -1205372.322  -6039008.126  -3096911.291
10 0 59460   3822.000000  0   -1458700.333  -6343727.415  -2265363.780
10 0 59460   3942.000000  0   -1690913.834  -6533554.715  -1394025.699
10 0 59460   4062.000000  0   -1895900.423  -6605503.582   -498181.718
10 0 59460   4182.000000  0   -2067988.152  -6558763.244    406424.720
10 0 59460   4302.000000  0   -2202086.553  -6394711.238   1303875.279
10 0 59460   4422.000000  0   -2293816.845  -6116881.835   2178365.629
10 0 59460   4542.000000  0   -2339627.671  -5730890.618   3014493.034
10 0 59460   4662.000000  0   -2336892.975  -5244317.008   3797535.570
10 0 59460   4782.000000  0   -2283989.863  -4666548.538   4513716.517
10 0 59460   4902.000000  0   -2180355.114  -4008591.934   5150449.041
10 0 59460   5022.000000  0   -2026519.507  -3282854.757   5696558.033
10 0 59460   5142.000000  0   -1824117.806  -2502902.013   6142473.081
10 0 59460   5262.000000  0   -1575874.690  -1683196.654   6480390.442
10 0 59460   5382.000000  0   -1285568.303   -838827.610   6704404.281
10 0 59460   5502.000000  0    -957972.518     14771.250   6810603.388
10 0 59460   5622.000000  0    -598778.758    862102.643   6797134.364
10 0 59460   5742.000000  0    -214497.076   1687886.617   6664232.874
10 0 59460   5862.000000  0     187661.859   2477335.948   6414219.823
10 0 59460   5982.000000  0     599921.549   3216420.803   6051462.915
10 0 59460   6102.000000  0    1014088.517   3892119.358   5582305.324
10 0 59460   6222.000000  0    1421713.489   4492651.039   5014960.482
10 0 59460   6342.000000  0    1814262.306   5007688.040   4359374.276
10 0 59460   6462.000000  0    2183293.292   5428539.913   3627055.073
10 0 59460   6582.000000  0    2520638.092   5748308.044   2830876.357
10 0 59460   6702.000000  0    2818580.427   5962009.877   1984849.817
10 0 59460   6822.000000  0    3070029.810   6066662.330   1103873.418
10 0 59460   6942.000000  0    3268683.698   6061324.614    203462.544
10 0 59460   7062.000000  0    3409175.356   5947100.752   -700530.852
10 0 59460   7182.000000  0    3487204.178   5727100.276  -1592205.887
10 0 59460   7302.000000  0    3499644.197   5406359.227  -2455900.038
10 0 59460   7422.000000  0    3444628.808   4991723.019  -3276471.155
10 0 59460   7542.000000  0    3321608.395   4491693.813  -4039567.033
10 0 59460   7662.000000  0    3131380.579   3916248.120  -4731875.689
10 0 59460   7782.000000  0    2876093.217   3276630.567  -5341353.989
10 0 59460   7902.000000  0    2559220.605   2585127.127  -5857430.011
10 0 59460   8022.000000  0    2185513.807   1854824.221  -6271176.576
10 0 59460   8142.000000  0    1760926.151   1099358.935  -6575453.934
10 0 59460   8262.000000  0    1292517.442    332665.867  -6765020.978
10 0 59460   8382.000000  0     788336.835   -431275.593  -6836617.289
10 0 59460   8502.000000  0     257285.127  -1178691.469  -6789012.656
10 0 59460   8622.000000  0    -291038.738  -1896254.766  -6623024.214
10 0 59460   8742.000000  0    -846506.110  -2571316.259  -6341504.893
10 0 59460   8862.000000  0   -1398641.397  -3192124.295  -5949300.581
10 0 59460   8982.000000  0   -1936814.585  -3748027.553  -5453174.716
10 0 59460   9102.000000  0   -2450441.871  -4229659.148  -4861703.610
10 0 59460   9222.000000  0   -2929192.520  -4629100.216  -4185140.257
99
